{
"type": "FeatureCollection",
"name": "grid",
"crs": { "type": "name", "properties": { "name": "urn:ogc:def:crs:EPSG::32719" } },
"features": [
{ "type": "Feature", "properties": { "gid": 1.0, "id": 2.0, "left": 239750.0, "top": 6638720.0, "right": 252550.0, "bottom": 6625920.0, "row_index": 1.0, "col_index": 0.0, "occu": 35.0 }, "geometry": { "type": "MultiPolygon", "coordinates": [ [ [ [ 239750.0, 6638720.0 ], [ 252550.0, 6638720.0 ], [ 252550.0, 6625920.0 ], [ 239750.0, 6625920.0 ], [ 239750.0, 6638720.0 ] ] ] ] } },
{ "type": "Feature", "properties": { "gid": 2.0, "id": 3.0, "left": 239750.0, "top": 6625920.0, "right": 252550.0, "bottom": 6613120.0, "row_index": 2.0, "col_index": 0.0, "occu": 33.0 }, "geometry": { "type": "MultiPolygon", "coordinates": [ [ [ [ 239750.0, 6625920.0 ], [ 252550.0, 6625920.0 ], [ 252550.0, 6613120.0 ], [ 239750.0, 6613120.0 ], [ 239750.0, 6625920.0 ] ] ] ] } },
{ "type": "Feature", "properties": { "gid": 3.0, "id": 4.0, "left": 239750.0, "top": 6613120.0, "right": 252550.0, "bottom": 6600320.0, "row_index": 3.0, "col_index": 0.0, "occu": 24.0 }, "geometry": { "type": "MultiPolygon", "coordinates": [ [ [ [ 239750.0, 6613120.0 ], [ 252550.0, 6613120.0 ], [ 252550.0, 6600320.0 ], [ 239750.0, 6600320.0 ], [ 239750.0, 6613120.0 ] ] ] ] } },
{ "type": "Feature", "properties": { "gid": 4.0, "id": 12.0, "left": 252550.0, "top": 6638720.0, "right": 265350.0, "bottom": 6625920.0, "row_index": 1.0, "col_index": 1.0, "occu": 41.0 }, "geometry": { "type": "MultiPolygon", "coordinates": [ [ [ [ 252550.0, 6638720.0 ], [ 265350.0, 6638720.0 ], [ 265350.0, 6625920.0 ], [ 252550.0, 6625920.0 ], [ 252550.0, 6638720.0 ] ] ] ] } },
{ "type": "Feature", "properties": { "gid": 5.0, "id": 13.0, "left": 252550.0, "top": 6625920.0, "right": 265350.0, "bottom": 6613120.0, "row_index": 2.0, "col_index": 1.0, "occu": 42.0 }, "geometry": { "type": "MultiPolygon", "coordinates": [ [ [ [ 252550.0, 6625920.0 ], [ 265350.0, 6625920.0 ], [ 265350.0, 6613120.0 ], [ 252550.0, 6613120.0 ], [ 252550.0, 6625920.0 ] ] ] ] } },
{ "type": "Feature", "properties": { "gid": 6.0, "id": 14.0, "left": 252550.0, "top": 6613120.0, "right": 265350.0, "bottom": 6600320.0, "row_index": 3.0, "col_index": 1.0, "occu": 50.0 }, "geometry": { "type": "MultiPolygon", "coordinates": [ [ [ [ 252550.0, 6613120.0 ], [ 265350.0, 6613120.0 ], [ 265350.0, 6600320.0 ], [ 252550.0, 6600320.0 ], [ 252550.0, 6613120.0 ] ] ] ] } },
{ "type": "Feature", "properties": { "gid": 7.0, "id": 15.0, "left": 252550.0, "top": 6600320.0, "right": 265350.0, "bottom": 6587520.0, "row_index": 4.0, "col_index": 1.0, "occu": 51.0 }, "geometry": { "type": "MultiPolygon", "coordinates": [ [ [ [ 252550.0, 6600320.0 ], [ 265350.0, 6600320.0 ], [ 265350.0, 6587520.0 ], [ 252550.0, 6587520.0 ], [ 252550.0, 6600320.0 ] ] ] ] } },
{ "type": "Feature", "properties": { "gid": 8.0, "id": 23.0, "left": 265350.0, "top": 6625920.0, "right": 278150.0, "bottom": 6613120.0, "row_index": 2.0, "col_index": 2.0, "occu": 47.0 }, "geometry": { "type": "MultiPolygon", "coordinates": [ [ [ [ 265350.0, 6625920.0 ], [ 278150.0, 6625920.0 ], [ 278150.0, 6613120.0 ], [ 265350.0, 6613120.0 ], [ 265350.0, 6625920.0 ] ] ] ] } },
{ "type": "Feature", "properties": { "gid": 9.0, "id": 24.0, "left": 265350.0, "top": 6613120.0, "right": 278150.0, "bottom": 6600320.0, "row_index": 3.0, "col_index": 2.0, "occu": 49.0 }, "geometry": { "type": "MultiPolygon", "coordinates": [ [ [ [ 265350.0, 6613120.0 ], [ 278150.0, 6613120.0 ], [ 278150.0, 6600320.0 ], [ 265350.0, 6600320.0 ], [ 265350.0, 6613120.0 ] ] ] ] } },
{ "type": "Feature", "properties": { "gid": 10.0, "id": 25.0, "left": 265350.0, "top": 6600320.0, "right": 278150.0, "bottom": 6587520.0, "row_index": 4.0, "col_index": 2.0, "occu": 47.0 }, "geometry": { "type": "MultiPolygon", "coordinates": [ [ [ [ 265350.0, 6600320.0 ], [ 278150.0, 6600320.0 ], [ 278150.0, 6587520.0 ], [ 265350.0, 6587520.0 ], [ 265350.0, 6600320.0 ] ] ] ] } },
{ "type": "Feature", "properties": { "gid": 11.0, "id": 26.0, "left": 265350.0, "top": 6587520.0, "right": 278150.0, "bottom": 6574720.0, "row_index": 5.0, "col_index": 2.0, "occu": 51.0 }, "geometry": { "type": "MultiPolygon", "coordinates": [ [ [ [ 265350.0, 6587520.0 ], [ 278150.0, 6587520.0 ], [ 278150.0, 6574720.0 ], [ 265350.0, 6574720.0 ], [ 265350.0, 6587520.0 ] ] ] ] } },
{ "type": "Feature", "properties": { "gid": 12.0, "id": 32.0, "left": 278150.0, "top": 6638720.0, "right": 290950.0, "bottom": 6625920.0, "row_index": 1.0, "col_index": 3.0, "occu": 56.0 }, "geometry": { "type": "MultiPolygon", "coordinates": [ [ [ [ 278150.0, 6638720.0 ], [ 290950.0, 6638720.0 ], [ 290950.0, 6625920.0 ], [ 278150.0, 6625920.0 ], [ 278150.0, 6638720.0 ] ] ] ] } },
{ "type": "Feature", "properties": { "gid": 13.0, "id": 33.0, "left": 278150.0, "top": 6625920.0, "right": 290950.0, "bottom": 6613120.0, "row_index": 2.0, "col_index": 3.0, "occu": 54.0 }, "geometry": { "type": "MultiPolygon", "coordinates": [ [ [ [ 278150.0, 6625920.0 ], [ 290950.0, 6625920.0 ], [ 290950.0, 6613120.0 ], [ 278150.0, 6613120.0 ], [ 278150.0, 6625920.0 ] ] ] ] } },
{ "type": "Feature", "properties": { "gid": 14.0, "id": 34.0, "left": 278150.0, "top": 6613120.0, "right": 290950.0, "bottom": 6600320.0, "row_index": 3.0, "col_index": 3.0, "occu": 48.0 }, "geometry": { "type": "MultiPolygon", "coordinates": [ [ [ [ 278150.0, 6613120.0 ], [ 290950.0, 6613120.0 ], [ 290950.0, 6600320.0 ], [ 278150.0, 6600320.0 ], [ 278150.0, 6613120.0 ] ] ] ] } },
{ "type": "Feature", "properties": { "gid": 15.0, "id": 35.0, "left": 278150.0, "top": 6600320.0, "right": 290950.0, "bottom": 6587520.0, "row_index": 4.0, "col_index": 3.0, "occu": 49.0 }, "geometry": { "type": "MultiPolygon", "coordinates": [ [ [ [ 278150.0, 6600320.0 ], [ 290950.0, 6600320.0 ], [ 290950.0, 6587520.0 ], [ 278150.0, 6587520.0 ], [ 278150.0, 6600320.0 ] ] ] ] } },
{ "type": "Feature", "properties": { "gid": 16.0, "id": 36.0, "left": 278150.0, "top": 6587520.0, "right": 290950.0, "bottom": 6574720.0, "row_index": 5.0, "col_index": 3.0, "occu": 55.0 }, "geometry": { "type": "MultiPolygon", "coordinates": [ [ [ [ 278150.0, 6587520.0 ], [ 290950.0, 6587520.0 ], [ 290950.0, 6574720.0 ], [ 278150.0, 6574720.0 ], [ 278150.0, 6587520.0 ] ] ] ] } },
{ "type": "Feature", "properties": { "gid": 17.0, "id": 37.0, "left": 278150.0, "top": 6574720.0, "right": 290950.0, "bottom": 6561920.0, "row_index": 6.0, "col_index": 3.0, "occu": 67.0 }, "geometry": { "type": "MultiPolygon", "coordinates": [ [ [ [ 278150.0, 6574720.0 ], [ 290950.0, 6574720.0 ], [ 290950.0, 6561920.0 ], [ 278150.0, 6561920.0 ], [ 278150.0, 6574720.0 ] ] ] ] } },
{ "type": "Feature", "properties": { "gid": 18.0, "id": 41.0, "left": 290950.0, "top": 6651520.0, "right": 303750.0, "bottom": 6638720.0, "row_index": 0.0, "col_index": 4.0, "occu": 68.0 }, "geometry": { "type": "MultiPolygon", "coordinates": [ [ [ [ 290950.0, 6651520.0 ], [ 303750.0, 6651520.0 ], [ 303750.0, 6638720.0 ], [ 290950.0, 6638720.0 ], [ 290950.0, 6651520.0 ] ] ] ] } },
{ "type": "Feature", "properties": { "gid": 19.0, "id": 42.0, "left": 290950.0, "top": 6638720.0, "right": 303750.0, "bottom": 6625920.0, "row_index": 1.0, "col_index": 4.0, "occu": 60.0 }, "geometry": { "type": "MultiPolygon", "coordinates": [ [ [ [ 290950.0, 6638720.0 ], [ 303750.0, 6638720.0 ], [ 303750.0, 6625920.0 ], [ 290950.0, 6625920.0 ], [ 290950.0, 6638720.0 ] ] ] ] } },
{ "type": "Feature", "properties": { "gid": 20.0, "id": 43.0, "left": 290950.0, "top": 6625920.0, "right": 303750.0, "bottom": 6613120.0, "row_index": 2.0, "col_index": 4.0, "occu": 56.0 }, "geometry": { "type": "MultiPolygon", "coordinates": [ [ [ [ 290950.0, 6625920.0 ], [ 303750.0, 6625920.0 ], [ 303750.0, 6613120.0 ], [ 290950.0, 6613120.0 ], [ 290950.0, 6625920.0 ] ] ] ] } },
{ "type": "Feature", "properties": { "gid": 21.0, "id": 44.0, "left": 290950.0, "top": 6613120.0, "right": 303750.0, "bottom": 6600320.0, "row_index": 3.0, "col_index": 4.0, "occu": 58.0 }, "geometry": { "type": "MultiPolygon", "coordinates": [ [ [ [ 290950.0, 6613120.0 ], [ 303750.0, 6613120.0 ], [ 303750.0, 6600320.0 ], [ 290950.0, 6600320.0 ], [ 290950.0, 6613120.0 ] ] ] ] } },
{ "type": "Feature", "properties": { "gid": 22.0, "id": 45.0, "left": 290950.0, "top": 6600320.0, "right": 303750.0, "bottom": 6587520.0, "row_index": 4.0, "col_index": 4.0, "occu": 61.0 }, "geometry": { "type": "MultiPolygon", "coordinates": [ [ [ [ 290950.0, 6600320.0 ], [ 303750.0, 6600320.0 ], [ 303750.0, 6587520.0 ], [ 290950.0, 6587520.0 ], [ 290950.0, 6600320.0 ] ] ] ] } },
{ "type": "Feature", "properties": { "gid": 23.0, "id": 46.0, "left": 290950.0, "top": 6587520.0, "right": 303750.0, "bottom": 6574720.0, "row_index": 5.0, "col_index": 4.0, "occu": 61.0 }, "geometry": { "type": "MultiPolygon", "coordinates": [ [ [ [ 290950.0, 6587520.0 ], [ 303750.0, 6587520.0 ], [ 303750.0, 6574720.0 ], [ 290950.0, 6574720.0 ], [ 290950.0, 6587520.0 ] ] ] ] } },
{ "type": "Feature", "properties": { "gid": 24.0, "id": 47.0, "left": 290950.0, "top": 6574720.0, "right": 303750.0, "bottom": 6561920.0, "row_index": 6.0, "col_index": 4.0, "occu": 68.0 }, "geometry": { "type": "MultiPolygon", "coordinates": [ [ [ [ 290950.0, 6574720.0 ], [ 303750.0, 6574720.0 ], [ 303750.0, 6561920.0 ], [ 290950.0, 6561920.0 ], [ 290950.0, 6574720.0 ] ] ] ] } },
{ "type": "Feature", "properties": { "gid": 25.0, "id": 48.0, "left": 290950.0, "top": 6561920.0, "right": 303750.0, "bottom": 6549120.0, "row_index": 7.0, "col_index": 4.0, "occu": 70.0 }, "geometry": { "type": "MultiPolygon", "coordinates": [ [ [ [ 290950.0, 6561920.0 ], [ 303750.0, 6561920.0 ], [ 303750.0, 6549120.0 ], [ 290950.0, 6549120.0 ], [ 290950.0, 6561920.0 ] ] ] ] } },
{ "type": "Feature", "properties": { "gid": 26.0, "id": 49.0, "left": 290950.0, "top": 6549120.0, "right": 303750.0, "bottom": 6536320.0, "row_index": 8.0, "col_index": 4.0, "occu": 72.0 }, "geometry": { "type": "MultiPolygon", "coordinates": [ [ [ [ 290950.0, 6549120.0 ], [ 303750.0, 6549120.0 ], [ 303750.0, 6536320.0 ], [ 290950.0, 6536320.0 ], [ 290950.0, 6549120.0 ] ] ] ] } },
{ "type": "Feature", "properties": { "gid": 27.0, "id": 52.0, "left": 303750.0, "top": 6638720.0, "right": 316550.0, "bottom": 6625920.0, "row_index": 1.0, "col_index": 5.0, "occu": 70.0 }, "geometry": { "type": "MultiPolygon", "coordinates": [ [ [ [ 303750.0, 6638720.0 ], [ 316550.0, 6638720.0 ], [ 316550.0, 6625920.0 ], [ 303750.0, 6625920.0 ], [ 303750.0, 6638720.0 ] ] ] ] } },
{ "type": "Feature", "properties": { "gid": 28.0, "id": 54.0, "left": 303750.0, "top": 6613120.0, "right": 316550.0, "bottom": 6600320.0, "row_index": 3.0, "col_index": 5.0, "occu": 65.0 }, "geometry": { "type": "MultiPolygon", "coordinates": [ [ [ [ 303750.0, 6613120.0 ], [ 316550.0, 6613120.0 ], [ 316550.0, 6600320.0 ], [ 303750.0, 6600320.0 ], [ 303750.0, 6613120.0 ] ] ] ] } },
{ "type": "Feature", "properties": { "gid": 29.0, "id": 55.0, "left": 303750.0, "top": 6600320.0, "right": 316550.0, "bottom": 6587520.0, "row_index": 4.0, "col_index": 5.0, "occu": 69.0 }, "geometry": { "type": "MultiPolygon", "coordinates": [ [ [ [ 303750.0, 6600320.0 ], [ 316550.0, 6600320.0 ], [ 316550.0, 6587520.0 ], [ 303750.0, 6587520.0 ], [ 303750.0, 6600320.0 ] ] ] ] } },
{ "type": "Feature", "properties": { "gid": 30.0, "id": 56.0, "left": 303750.0, "top": 6587520.0, "right": 316550.0, "bottom": 6574720.0, "row_index": 5.0, "col_index": 5.0, "occu": 69.0 }, "geometry": { "type": "MultiPolygon", "coordinates": [ [ [ [ 303750.0, 6587520.0 ], [ 316550.0, 6587520.0 ], [ 316550.0, 6574720.0 ], [ 303750.0, 6574720.0 ], [ 303750.0, 6587520.0 ] ] ] ] } },
{ "type": "Feature", "properties": { "gid": 31.0, "id": 57.0, "left": 303750.0, "top": 6574720.0, "right": 316550.0, "bottom": 6561920.0, "row_index": 6.0, "col_index": 5.0, "occu": 69.0 }, "geometry": { "type": "MultiPolygon", "coordinates": [ [ [ [ 303750.0, 6574720.0 ], [ 316550.0, 6574720.0 ], [ 316550.0, 6561920.0 ], [ 303750.0, 6561920.0 ], [ 303750.0, 6574720.0 ] ] ] ] } },
{ "type": "Feature", "properties": { "gid": 32.0, "id": 58.0, "left": 303750.0, "top": 6561920.0, "right": 316550.0, "bottom": 6549120.0, "row_index": 7.0, "col_index": 5.0, "occu": 69.0 }, "geometry": { "type": "MultiPolygon", "coordinates": [ [ [ [ 303750.0, 6561920.0 ], [ 316550.0, 6561920.0 ], [ 316550.0, 6549120.0 ], [ 303750.0, 6549120.0 ], [ 303750.0, 6561920.0 ] ] ] ] } },
{ "type": "Feature", "properties": { "gid": 33.0, "id": 59.0, "left": 303750.0, "top": 6549120.0, "right": 316550.0, "bottom": 6536320.0, "row_index": 8.0, "col_index": 5.0, "occu": 71.0 }, "geometry": { "type": "MultiPolygon", "coordinates": [ [ [ [ 303750.0, 6549120.0 ], [ 316550.0, 6549120.0 ], [ 316550.0, 6536320.0 ], [ 303750.0, 6536320.0 ], [ 303750.0, 6549120.0 ] ] ] ] } },
{ "type": "Feature", "properties": { "gid": 34.0, "id": 60.0, "left": 303750.0, "top": 6536320.0, "right": 316550.0, "bottom": 6523520.0, "row_index": 9.0, "col_index": 5.0, "occu": 71.0 }, "geometry": { "type": "MultiPolygon", "coordinates": [ [ [ [ 303750.0, 6536320.0 ], [ 316550.0, 6536320.0 ], [ 316550.0, 6523520.0 ], [ 303750.0, 6523520.0 ], [ 303750.0, 6536320.0 ] ] ] ] } },
{ "type": "Feature", "properties": { "gid": 35.0, "id": 61.0, "left": 316550.0, "top": 6651520.0, "right": 329350.0, "bottom": 6638720.0, "row_index": 0.0, "col_index": 6.0, "occu": 73.0 }, "geometry": { "type": "MultiPolygon", "coordinates": [ [ [ [ 316550.0, 6651520.0 ], [ 329350.0, 6651520.0 ], [ 329350.0, 6638720.0 ], [ 316550.0, 6638720.0 ], [ 316550.0, 6651520.0 ] ] ] ] } },
{ "type": "Feature", "properties": { "gid": 36.0, "id": 62.0, "left": 316550.0, "top": 6638720.0, "right": 329350.0, "bottom": 6625920.0, "row_index": 1.0, "col_index": 6.0, "occu": 70.0 }, "geometry": { "type": "MultiPolygon", "coordinates": [ [ [ [ 316550.0, 6638720.0 ], [ 329350.0, 6638720.0 ], [ 329350.0, 6625920.0 ], [ 316550.0, 6625920.0 ], [ 316550.0, 6638720.0 ] ] ] ] } },
{ "type": "Feature", "properties": { "gid": 37.0, "id": 63.0, "left": 316550.0, "top": 6625920.0, "right": 329350.0, "bottom": 6613120.0, "row_index": 2.0, "col_index": 6.0, "occu": 70.0 }, "geometry": { "type": "MultiPolygon", "coordinates": [ [ [ [ 316550.0, 6625920.0 ], [ 329350.0, 6625920.0 ], [ 329350.0, 6613120.0 ], [ 316550.0, 6613120.0 ], [ 316550.0, 6625920.0 ] ] ] ] } },
{ "type": "Feature", "properties": { "gid": 38.0, "id": 64.0, "left": 316550.0, "top": 6613120.0, "right": 329350.0, "bottom": 6600320.0, "row_index": 3.0, "col_index": 6.0, "occu": 68.0 }, "geometry": { "type": "MultiPolygon", "coordinates": [ [ [ [ 316550.0, 6613120.0 ], [ 329350.0, 6613120.0 ], [ 329350.0, 6600320.0 ], [ 316550.0, 6600320.0 ], [ 316550.0, 6613120.0 ] ] ] ] } },
{ "type": "Feature", "properties": { "gid": 39.0, "id": 65.0, "left": 316550.0, "top": 6600320.0, "right": 329350.0, "bottom": 6587520.0, "row_index": 4.0, "col_index": 6.0, "occu": 69.0 }, "geometry": { "type": "MultiPolygon", "coordinates": [ [ [ [ 316550.0, 6600320.0 ], [ 329350.0, 6600320.0 ], [ 329350.0, 6587520.0 ], [ 316550.0, 6587520.0 ], [ 316550.0, 6600320.0 ] ] ] ] } },
{ "type": "Feature", "properties": { "gid": 40.0, "id": 66.0, "left": 316550.0, "top": 6587520.0, "right": 329350.0, "bottom": 6574720.0, "row_index": 5.0, "col_index": 6.0, "occu": 71.0 }, "geometry": { "type": "MultiPolygon", "coordinates": [ [ [ [ 316550.0, 6587520.0 ], [ 329350.0, 6587520.0 ], [ 329350.0, 6574720.0 ], [ 316550.0, 6574720.0 ], [ 316550.0, 6587520.0 ] ] ] ] } },
{ "type": "Feature", "properties": { "gid": 41.0, "id": 67.0, "left": 316550.0, "top": 6574720.0, "right": 329350.0, "bottom": 6561920.0, "row_index": 6.0, "col_index": 6.0, "occu": 67.0 }, "geometry": { "type": "MultiPolygon", "coordinates": [ [ [ [ 316550.0, 6574720.0 ], [ 329350.0, 6574720.0 ], [ 329350.0, 6561920.0 ], [ 316550.0, 6561920.0 ], [ 316550.0, 6574720.0 ] ] ] ] } },
{ "type": "Feature", "properties": { "gid": 42.0, "id": 68.0, "left": 316550.0, "top": 6561920.0, "right": 329350.0, "bottom": 6549120.0, "row_index": 7.0, "col_index": 6.0, "occu": 67.0 }, "geometry": { "type": "MultiPolygon", "coordinates": [ [ [ [ 316550.0, 6561920.0 ], [ 329350.0, 6561920.0 ], [ 329350.0, 6549120.0 ], [ 316550.0, 6549120.0 ], [ 316550.0, 6561920.0 ] ] ] ] } },
{ "type": "Feature", "properties": { "gid": 43.0, "id": 69.0, "left": 316550.0, "top": 6549120.0, "right": 329350.0, "bottom": 6536320.0, "row_index": 8.0, "col_index": 6.0, "occu": 60.0 }, "geometry": { "type": "MultiPolygon", "coordinates": [ [ [ [ 316550.0, 6549120.0 ], [ 329350.0, 6549120.0 ], [ 329350.0, 6536320.0 ], [ 316550.0, 6536320.0 ], [ 316550.0, 6549120.0 ] ] ] ] } },
{ "type": "Feature", "properties": { "gid": 44.0, "id": 71.0, "left": 329350.0, "top": 6651520.0, "right": 342150.0, "bottom": 6638720.0, "row_index": 0.0, "col_index": 7.0, "occu": 69.0 }, "geometry": { "type": "MultiPolygon", "coordinates": [ [ [ [ 329350.0, 6651520.0 ], [ 342150.0, 6651520.0 ], [ 342150.0, 6638720.0 ], [ 329350.0, 6638720.0 ], [ 329350.0, 6651520.0 ] ] ] ] } },
{ "type": "Feature", "properties": { "gid": 45.0, "id": 74.0, "left": 329350.0, "top": 6613120.0, "right": 342150.0, "bottom": 6600320.0, "row_index": 3.0, "col_index": 7.0, "occu": 72.0 }, "geometry": { "type": "MultiPolygon", "coordinates": [ [ [ [ 329350.0, 6613120.0 ], [ 342150.0, 6613120.0 ], [ 342150.0, 6600320.0 ], [ 329350.0, 6600320.0 ], [ 329350.0, 6613120.0 ] ] ] ] } },
{ "type": "Feature", "properties": { "gid": 46.0, "id": 75.0, "left": 329350.0, "top": 6600320.0, "right": 342150.0, "bottom": 6587520.0, "row_index": 4.0, "col_index": 7.0, "occu": 72.0 }, "geometry": { "type": "MultiPolygon", "coordinates": [ [ [ [ 329350.0, 6600320.0 ], [ 342150.0, 6600320.0 ], [ 342150.0, 6587520.0 ], [ 329350.0, 6587520.0 ], [ 329350.0, 6600320.0 ] ] ] ] } },
{ "type": "Feature", "properties": { "gid": 47.0, "id": 76.0, "left": 329350.0, "top": 6587520.0, "right": 342150.0, "bottom": 6574720.0, "row_index": 5.0, "col_index": 7.0, "occu": 67.0 }, "geometry": { "type": "MultiPolygon", "coordinates": [ [ [ [ 329350.0, 6587520.0 ], [ 342150.0, 6587520.0 ], [ 342150.0, 6574720.0 ], [ 329350.0, 6574720.0 ], [ 329350.0, 6587520.0 ] ] ] ] } },
{ "type": "Feature", "properties": { "gid": 48.0, "id": 77.0, "left": 329350.0, "top": 6574720.0, "right": 342150.0, "bottom": 6561920.0, "row_index": 6.0, "col_index": 7.0, "occu": 59.0 }, "geometry": { "type": "MultiPolygon", "coordinates": [ [ [ [ 329350.0, 6574720.0 ], [ 342150.0, 6574720.0 ], [ 342150.0, 6561920.0 ], [ 329350.0, 6561920.0 ], [ 329350.0, 6574720.0 ] ] ] ] } },
{ "type": "Feature", "properties": { "gid": 49.0, "id": 78.0, "left": 329350.0, "top": 6561920.0, "right": 342150.0, "bottom": 6549120.0, "row_index": 7.0, "col_index": 7.0, "occu": 58.0 }, "geometry": { "type": "MultiPolygon", "coordinates": [ [ [ [ 329350.0, 6561920.0 ], [ 342150.0, 6561920.0 ], [ 342150.0, 6549120.0 ], [ 329350.0, 6549120.0 ], [ 329350.0, 6561920.0 ] ] ] ] } },
{ "type": "Feature", "properties": { "gid": 50.0, "id": 81.0, "left": 342150.0, "top": 6651520.0, "right": 354950.0, "bottom": 6638720.0, "row_index": 0.0, "col_index": 8.0, "occu": 42.0 }, "geometry": { "type": "MultiPolygon", "coordinates": [ [ [ [ 342150.0, 6651520.0 ], [ 354950.0, 6651520.0 ], [ 354950.0, 6638720.0 ], [ 342150.0, 6638720.0 ], [ 342150.0, 6651520.0 ] ] ] ] } },
{ "type": "Feature", "properties": { "gid": 51.0, "id": 82.0, "left": 342150.0, "top": 6638720.0, "right": 354950.0, "bottom": 6625920.0, "row_index": 1.0, "col_index": 8.0, "occu": 62.0 }, "geometry": { "type": "MultiPolygon", "coordinates": [ [ [ [ 342150.0, 6638720.0 ], [ 354950.0, 6638720.0 ], [ 354950.0, 6625920.0 ], [ 342150.0, 6625920.0 ], [ 342150.0, 6638720.0 ] ] ] ] } },
{ "type": "Feature", "properties": { "gid": 52.0, "id": 84.0, "left": 342150.0, "top": 6613120.0, "right": 354950.0, "bottom": 6600320.0, "row_index": 3.0, "col_index": 8.0, "occu": 58.0 }, "geometry": { "type": "MultiPolygon", "coordinates": [ [ [ [ 342150.0, 6613120.0 ], [ 354950.0, 6613120.0 ], [ 354950.0, 6600320.0 ], [ 342150.0, 6600320.0 ], [ 342150.0, 6613120.0 ] ] ] ] } },
{ "type": "Feature", "properties": { "gid": 53.0, "id": 85.0, "left": 342150.0, "top": 6600320.0, "right": 354950.0, "bottom": 6587520.0, "row_index": 4.0, "col_index": 8.0, "occu": 68.0 }, "geometry": { "type": "MultiPolygon", "coordinates": [ [ [ [ 342150.0, 6600320.0 ], [ 354950.0, 6600320.0 ], [ 354950.0, 6587520.0 ], [ 342150.0, 6587520.0 ], [ 342150.0, 6600320.0 ] ] ] ] } },
{ "type": "Feature", "properties": { "gid": 54.0, "id": 86.0, "left": 342150.0, "top": 6587520.0, "right": 354950.0, "bottom": 6574720.0, "row_index": 5.0, "col_index": 8.0, "occu": 61.0 }, "geometry": { "type": "MultiPolygon", "coordinates": [ [ [ [ 342150.0, 6587520.0 ], [ 354950.0, 6587520.0 ], [ 354950.0, 6574720.0 ], [ 342150.0, 6574720.0 ], [ 342150.0, 6587520.0 ] ] ] ] } },
{ "type": "Feature", "properties": { "gid": 55.0, "id": 87.0, "left": 342150.0, "top": 6574720.0, "right": 354950.0, "bottom": 6561920.0, "row_index": 6.0, "col_index": 8.0, "occu": 58.0 }, "geometry": { "type": "MultiPolygon", "coordinates": [ [ [ [ 342150.0, 6574720.0 ], [ 354950.0, 6574720.0 ], [ 354950.0, 6561920.0 ], [ 342150.0, 6561920.0 ], [ 342150.0, 6574720.0 ] ] ] ] } },
{ "type": "Feature", "properties": { "gid": 56.0, "id": 88.0, "left": 342150.0, "top": 6561920.0, "right": 354950.0, "bottom": 6549120.0, "row_index": 7.0, "col_index": 8.0, "occu": 48.0 }, "geometry": { "type": "MultiPolygon", "coordinates": [ [ [ [ 342150.0, 6561920.0 ], [ 354950.0, 6561920.0 ], [ 354950.0, 6549120.0 ], [ 342150.0, 6549120.0 ], [ 342150.0, 6561920.0 ] ] ] ] } }
]
}
